{"type": "FeatureCollection", "features": [ {"type": "Feature", "properties": {"norad_id": 35462, "name": "COSMOS 2251 DEB", "group": "cosmos-2251-debris", "lat": 16.050362077342687, "lon": 90.31992072493618, "alt_km": 847.0891270175989, "timestamp": "2025-12-09T05:43:21.122743+00:00", "meta": {"OBJECT_NAME": "COSMOS 2251 DEB", "OBJECT_ID": "1993-036ALG", "EPOCH": "2025-12-08T12:09:24.774336", "MEAN_MOTION": 14.29237925, "ECCENTRICITY": 0.00868955, "INCLINATION": 74.0371, "RA_OF_ASC_NODE": 276.3719, "ARG_OF_PERICENTER": 312.4106, "MEAN_ANOMALY": 46.9712, "EPHEMERIS_TYPE": 0, "CLASSIFICATION_TYPE": "U", "NORAD_CAT_ID": 35462, "ELEMENT_SET_NO": 999, "REV_AT_EPOCH": 66320, "BSTAR": 0.0026621156, "MEAN_MOTION_DOT": 7.028e-05, "MEAN_MOTION_DDOT": 0}, "tle": {"line1": "1 35462U 93036ALG 25342.50653674  .00007028  00000+0  26621-2 0  9998", "line2": "2 35462  74.0371 276.3719 0086895 312.4106  46.9712 14.29237925663202"}}, "geometry": {"type": "Point", "coordinates": [90.31992072493618, 16.050362077342687]}}, {"type": "Feature", "properties": {"norad_id": 35465, "name": "COSMOS 2251 DEB", "group": "cosmos-2251-debris", "lat": 31.993850859680332, "lon": -146.1108879165711, "alt_km": 702.5555302604907, "timestamp": "2025-12-09T05:43:21.122754+00:00", "meta": {"OBJECT_NAME": "COSMOS 2251 DEB", "OBJECT_ID": "1993-036ALK", "EPOCH": "2025-11-29T22:48:34.232544", "MEAN_MOTION": 14.44263019, "ECCENTRICITY": 0.00634289, "INCLINATION": 73.9997, "RA_OF_ASC_NODE": 220.8763, "ARG_OF_PERICENTER": 24.0529, "MEAN_ANOMALY": 336.3567, "EPHEMERIS_TYPE": 0, "CLASSIFICATION_TYPE": "U", "NORAD_CAT_ID": 35465, "ELEMENT_SET_NO": 999, "REV_AT_EPOCH": 87057, "BSTAR": 0.00049692277, "MEAN_MOTION_DOT": 1.723e-05, "MEAN_MOTION_DDOT": 0}, "tle": {"line1": "1 35465U 93036ALK 25333.95039621  .00001723  00000+0  49692-3 0  9990", "line2": "2 35465  73.9997 220.8763 0063428  24.0529 336.3567 14.44263019870576"}}, "geometry": {"type": "Point", "coordinates": [-146.1108879165711, 31.993850859680332]}}, {"type": "Feature", "properties": {"norad_id": 35469, "name": "COSMOS 2251 DEB", "group": "cosmos-2251-debris", "lat": 19.258758454039924, "lon": -155.29380982588435, "alt_km": 677.0632961785022, "timestamp": "2025-12-09T05:43:21.122764+00:00", "meta": {"OBJECT_NAME": "COSMOS 2251 DEB", "OBJECT_ID": "1993-036ALP", "EPOCH": "2025-12-07T11:35:01.685760", "MEAN_MOTION": 14.4981221, "ECCENTRICITY": 0.00771882, "INCLINATION": 74.0177, "RA_OF_ASC_NODE": 33.7518, "ARG_OF_PERICENTER": 190.4188, "MEAN_ANOMALY": 169.5378, "EPHEMERIS_TYPE": 0, "CLASSIFICATION_TYPE": "U", "NORAD_CAT_ID": 35469, "ELEMENT_SET_NO": 999, "REV_AT_EPOCH": 88035, "BSTAR": 0.00021613901, "MEAN_MOTION_DOT": 8.36e-06, "MEAN_MOTION_DDOT": 0}, "tle": {"line1": "1 35469U 93036ALP 25341.48265840  .00000836  00000+0  21614-3 0  9993", "line2": "2 35469  74.0177  33.7518 0077188 190.4188 169.5378 14.49812210880359"}}, "geometry": {"type": "Point", "coordinates": [-155.29380982588435, 19.258758454039924]}}, {"type": "Feature", "properties": {"norad_id": 35475, "name": "COSMOS 2251 DEB", "group": "cosmos-2251-debris", "lat": 53.46557992472069, "lon": -30.33713669545452, "alt_km": 664.6945090437366, "timestamp": "2025-12-09T05:43:21.122775+00:00", "meta": {"OBJECT_NAME": "COSMOS 2251 DEB", "OBJECT_ID": "1993-036ALV", "EPOCH": "2025-12-08T19:21:33.372000", "MEAN_MOTION": 14.69600335, "ECCENTRICITY": 0.0020819, "INCLINATION": 74.0214, "RA_OF_ASC_NODE": 173.2517, "ARG_OF_PERICENTER": 246.2805, "MEAN_ANOMALY": 113.6182, "EPHEMERIS_TYPE": 0, "CLASSIFICATION_TYPE": "U", "NORAD_CAT_ID": 35475, "ELEMENT_SET_NO": 999, "REV_AT_EPOCH": 65559, "BSTAR": 0.0025427, "MEAN_MOTION_DOT": 0.00015164, "MEAN_MOTION_DDOT": 0}, "tle": {"line1": "1 35475U 93036ALV 25342.80663625  .00015164  00000+0  25427-2 0  9995", "line2": "2 35475  74.0214 173.2517 0020819 246.2805 113.6182 14.69600335655596"}}, "geometry": {"type": "Point", "coordinates": [-30.33713669545452, 53.46557992472069]}}, {"type": "Feature", "properties": {"norad_id": 35476, "name": "COSMOS 2251 DEB", "group": "cosmos-2251-debris", "lat": -67.86089061741065, "lon": -67.27688173477586, "alt_km": 661.5544212086988, "timestamp": "2025-12-09T05:43:21.122785+00:00", "meta": {"OBJECT_NAME": "COSMOS 2251 DEB", "OBJECT_ID": "1993-036ALW", "EPOCH": "2025-12-08T12:22:21.105120", "MEAN_MOTION": 14.75530795, "ECCENTRICITY": 0.00174354, "INCLINATION": 73.9779, "RA_OF_ASC_NODE": 69.2078, "ARG_OF_PERICENTER": 53.0325, "MEAN_ANOMALY": 323.0323, "EPHEMERIS_TYPE": 0, "CLASSIFICATION_TYPE": "U", "NORAD_CAT_ID": 35476, "ELEMENT_SET_NO": 999, "REV_AT_EPOCH": 87825, "BSTAR": 0.0023723652, "MEAN_MOTION_DOT": 0.00016205, "MEAN_MOTION_DDOT": 0}, "tle": {"line1": "1 35476U 93036ALW 25342.51552205  .00016205  00000+0  23724-2 0  9990", "line2": "2 35476  73.9779  69.2078 0017435  53.0325 323.0323 14.75530795878251"}}, "geometry": {"type": "Point", "coordinates": [-67.27688173477586, -67.86089061741065]}}, {"type": "Feature", "properties": {"norad_id": 35580, "name": "COSMOS 2251 DEB", "group": "cosmos-2251-debris", "lat": 62.15542236237761, "lon": -142.17927295534938, "alt_km": 1054.0638212562108, "timestamp": "2025-12-09T05:43:21.122796+00:00", "meta": {"OBJECT_NAME": "COSMOS 2251 DEB", "OBJECT_ID": "1993-036ALX", "EPOCH": "2025-12-06T21:51:49.269024", "MEAN_MOTION": 13.83821036, "ECCENTRICITY": 0.02818687, "INCLINATION": 73.9, "RA_OF_ASC_NODE": 188.633, "ARG_OF_PERICENTER": 195.0077, "MEAN_ANOMALY": 164.256, "EPHEMERIS_TYPE": 0, "CLASSIFICATION_TYPE": "U", "NORAD_CAT_ID": 35580, "ELEMENT_SET_NO": 999, "REV_AT_EPOCH": 62176, "BSTAR": 0.0026984958, "MEAN_MOTION_DOT": 4.042e-05, "MEAN_MOTION_DDOT": 0}, "tle": {"line1": "1 35580U 93036ALX 25340.91098691  .00004042  00000+0  26985-2 0  9990", "line2": "2 35580  73.9000 188.6330 0281868 195.0077 164.2560 13.83821036621764"}}, "geometry": {"type": "Point", "coordinates": [-142.17927295534938, 62.15542236237761]}}, {"type": "Feature", "properties": {"norad_id": 35583, "name": "COSMOS 2251 DEB", "group": "cosmos-2251-debris", "lat": 55.32398577662289, "lon": 13.045770726264074, "alt_km": 1189.0555277338317, "timestamp": "2025-12-09T05:43:21.122807+00:00", "meta": {"OBJECT_NAME": "COSMOS 2251 DEB", "OBJECT_ID": "1993-036AMA", "EPOCH": "2025-12-08T09:36:09.796896", "MEAN_MOTION": 13.55325307, "ECCENTRICITY": 0.03856683, "INCLINATION": 73.9171, "RA_OF_ASC_NODE": 219.0491, "ARG_OF_PERICENTER": 244.1948, "MEAN_ANOMALY": 111.8906, "EPHEMERIS_TYPE": 0, "CLASSIFICATION_TYPE": "U", "NORAD_CAT_ID": 35583, "ELEMENT_SET_NO": 999, "REV_AT_EPOCH": 82353, "BSTAR": 0.00095594703, "MEAN_MOTION_DOT": 1.042e-05, "MEAN_MOTION_DDOT": 0}, "tle": {"line1": "1 35583U 93036AMA 25342.40011339  .00001042  00000+0  95595-3 0  9994", "line2": "2 35583  73.9171 219.0491 0385668 244.1948 111.8906 13.55325307823539"}}, "geometry": {"type": "Point", "coordinates": [13.045770726264074, 55.32398577662289]}}, {"type": "Feature", "properties": {"norad_id": 35585, "name": "COSMOS 2251 DEB", "group": "cosmos-2251-debris", "lat": -5.219051328644321, "lon": 175.7625202433055, "alt_km": 944.7024628139761, "timestamp": "2025-12-09T05:43:21.122818+00:00", "meta": {"OBJECT_NAME": "COSMOS 2251 DEB", "OBJECT_ID": "1993-036AMC", "EPOCH": "2025-12-08T12:07:10.517376", "MEAN_MOTION": 13.75229968, "ECCENTRICITY": 0.03104895, "INCLINATION": 73.9712, "RA_OF_ASC_NODE": 355.4819, "ARG_OF_PERICENTER": 268.5386, "MEAN_ANOMALY": 250.4436, "EPHEMERIS_TYPE": 0, "CLASSIFICATION_TYPE": "U", "NORAD_CAT_ID": 35585, "ELEMENT_SET_NO": 999, "REV_AT_EPOCH": 64005, "BSTAR": 0.0019971836, "MEAN_MOTION_DOT": 2.695e-05, "MEAN_MOTION_DDOT": 0}, "tle": {"line1": "1 35585U 93036AMC 25342.50498284  .00002695  00000+0  19972-2 0  9994", "line2": "2 35585  73.9712 355.4819 0310489 268.5386 250.4436 13.75229968640056"}}, "geometry": {"type": "Point", "coordinates": [175.7625202433055, -5.219051328644321]}}, {"type": "Feature", "properties": {"norad_id": 35586, "name": "COSMOS 2251 DEB", "group": "cosmos-2251-debris", "lat": -44.953684462190644, "lon": -68.53143460182434, "alt_km": 1251.402172891464, "timestamp": "2025-12-09T05:43:21.122828+00:00", "meta": {"OBJECT_NAME": "COSMOS 2251 DEB", "OBJECT_ID": "1993-036AMD", "EPOCH": "2025-12-02T16:49:03.133344", "MEAN_MOTION": 13.52074918, "ECCENTRICITY": 0.04051153, "INCLINATION": 74.0205, "RA_OF_ASC_NODE": 318.5607, "ARG_OF_PERICENTER": 196.0051, "MEAN_ANOMALY": 342.734, "EPHEMERIS_TYPE": 0, "CLASSIFICATION_TYPE": "U", "NORAD_CAT_ID": 35586, "ELEMENT_SET_NO": 999, "REV_AT_EPOCH": 60246, "BSTAR": 0.00045411914, "MEAN_MOTION_DOT": 4.79e-06, "MEAN_MOTION_DDOT": 0}, "tle": {"line1": "1 35586U 93036AMD 25336.70073071  .00000479  00000+0  45412-3 0  9990", "line2": "2 35586  74.0205 318.5607 0405115 196.0051 342.7340 13.52074918602466"}}, "geometry": {"type": "Point", "coordinates": [-68.53143460182434, -44.953684462190644]}}, {"type": "Feature", "properties": {"norad_id": 35587, "name": "COSMOS 2251 DEB", "group": "cosmos-2251-debris", "lat": 62.411698601064465, "lon": -148.04614798306451, "alt_km": 705.6480678830867, "timestamp": "2025-12-09T05:43:21.122839+00:00", "meta": {"OBJECT_NAME": "COSMOS 2251 DEB", "OBJECT_ID": "1993-036AME", "EPOCH": "2025-12-06T23:21:29.867040", "MEAN_MOTION": 14.71485933, "ECCENTRICITY": 0.01027904, "INCLINATION": 74.0056, "RA_OF_ASC_NODE": 69.6568, "ARG_OF_PERICENTER": 258.589, "MEAN_ANOMALY": 100.3722, "EPHEMERIS_TYPE": 0, "CLASSIFICATION_TYPE": "U", "NORAD_CAT_ID": 35587, "ELEMENT_SET_NO": 999, "REV_AT_EPOCH": 66261, "BSTAR": 0.00050810605, "MEAN_MOTION_DOT": 3.388e-05, "MEAN_MOTION_DDOT": 0}, "tle": {"line1": "1 35587U 93036AME 25340.97326235  .00003388  00000+0  50811-3 0  9999", "line2": "2 35587  74.0056  69.6568 0102790 258.5890 100.3722 14.71485933662619"}}, "geometry": {"type": "Point", "coordinates": [-148.04614798306451, 62.411698601064465]}}]}